{
  "type": "FeatureCollection",
  "features": [
    {
      "type": "Feature",
      "properties": {
        "norad_id": 40228,
        "name": "COSMOS 2251 DEB",
        "group": "cosmos-2251-debris",
        "lat": -37.08155321332054,
        "lon": 80.74309900484506,
        "alt_km": 761.1158508015951,
        "timestamp": "2025-12-19T08:58:49.735362+00:00",
        "meta_object_name": "COSMOS 2251 DEB",
        "meta_object_id": "1993-036BVH",
        "meta_epoch": "2025-12-18T11:07:40.986048",
        "meta_mean_motion": 14.41005465,
        "meta_eccentricity": 0.00241854,
        "meta_inclination": 74.0545,
        "meta_ra_of_asc_node": 249.9467,
        "meta_arg_of_pericenter": 310.566,
        "meta_mean_anomaly": 226.9406,
        "meta_ephemeris_type": 0,
        "meta_classification_type": "U",
        "meta_norad_cat_id": 40228,
        "meta_element_set_no": 999,
        "meta_rev_at_epoch": 59003,
        "meta_bstar": 0.00024280039,
        "meta_mean_motion_dot": 7.57e-06,
        "meta_mean_motion_ddot": 0,
        "tle_line1": "1 40228U 93036BVH 25352.46366882  .00000757  00000+0  24280-3 0  9994",
        "tle_line2": "2 40228  74.0545 249.9467 0024185 310.5660 226.9406 14.41005465590031"
      },
      "geometry": {
        "type": "Point",
        "coordinates": [
          80.74309900484506,
          -37.08155321332054
        ]
      }
    },
    {
      "type": "Feature",
      "properties": {
        "norad_id": 40230,
        "name": "COSMOS 2251 DEB",
        "group": "cosmos-2251-debris",
        "lat": -38.683948293992984,
        "lon": 47.69360474612492,
        "alt_km": 725.4585262821174,
        "timestamp": "2025-12-19T08:58:49.735372+00:00",
        "meta_object_name": "COSMOS 2251 DEB",
        "meta_object_id": "1993-036BVK",
        "meta_epoch": "2025-12-18T09:36:19.874592",
        "meta_mean_motion": 14.49348382,
        "meta_eccentricity": 0.00189684,
        "meta_inclination": 74.044,
        "meta_ra_of_asc_node": 216.2761,
        "meta_arg_of_pericenter": 274.0504,
        "meta_mean_anomaly": 266.869,
        "meta_ephemeris_type": 0,
        "meta_classification_type": "U",
        "meta_norad_cat_id": 40230,
        "meta_element_set_no": 999,
        "meta_rev_at_epoch": 59053,
        "meta_bstar": 0.00052195618,
        "meta_mean_motion_dot": 1.971e-05,
        "meta_mean_motion_ddot": 0,
        "tle_line1": "1 40230U 93036BVK 25352.40023003  .00001971  00000+0  52196-3 0  9992",
        "tle_line2": "2 40230  74.0440 216.2761 0018968 274.0504 266.8690 14.49348382590534"
      },
      "geometry": {
        "type": "Point",
        "coordinates": [
          47.69360474612492,
          -38.683948293992984
        ]
      }
    },
    {
      "type": "Feature",
      "properties": {
        "norad_id": 40233,
        "name": "COSMOS 2251 DEB",
        "group": "cosmos-2251-debris",
        "lat": -72.30730750824243,
        "lon": -25.03775936416023,
        "alt_km": 709.6054469919045,
        "timestamp": "2025-12-19T08:58:49.735382+00:00",
        "meta_object_name": "COSMOS 2251 DEB",
        "meta_object_id": "1993-036BVN",
        "meta_epoch": "2025-12-16T00:45:52.214112",
        "meta_mean_motion": 14.58458772,
        "meta_eccentricity": 0.0044987,
        "meta_inclination": 73.9406,
        "meta_ra_of_asc_node": 96.8035,
        "meta_arg_of_pericenter": 171.0622,
        "meta_mean_anomaly": 189.1354,
        "meta_ephemeris_type": 0,
        "meta_classification_type": "U",
        "meta_norad_cat_id": 40233,
        "meta_element_set_no": 999,
        "meta_rev_at_epoch": 59185,
        "meta_bstar": 0.00091306486,
        "meta_mean_motion_dot": 4.268e-05,
        "meta_mean_motion_ddot": 0,
        "tle_line1": "1 40233U 93036BVN 25350.03185433  .00004268  00000+0  91306-3 0  9996",
        "tle_line2": "2 40233  73.9406  96.8035 0044987 171.0622 189.1354 14.58458772591855"
      },
      "geometry": {
        "type": "Point",
        "coordinates": [
          -25.03775936416023,
          -72.30730750824243
        ]
      }
    },
    {
      "type": "Feature",
      "properties": {
        "norad_id": 40236,
        "name": "COSMOS 2251 DEB",
        "group": "cosmos-2251-debris",
        "lat": 0.7641756103176519,
        "lon": 133.5273746121059,
        "alt_km": 772.4680806653987,
        "timestamp": "2025-12-19T08:58:49.735393+00:00",
        "meta_object_name": "COSMOS 2251 DEB",
        "meta_object_id": "1993-036BVR",
        "meta_epoch": "2025-12-07T17:52:23.026080",
        "meta_mean_motion": 13.24639967,
        "meta_eccentricity": 0.05366128,
        "meta_inclination": 73.5349,
        "meta_ra_of_asc_node": 151.6266,
        "meta_arg_of_pericenter": 32.3576,
        "meta_mean_anomaly": 330.9258,
        "meta_ephemeris_type": 0,
        "meta_classification_type": "U",
        "meta_norad_cat_id": 40236,
        "meta_element_set_no": 999,
        "meta_rev_at_epoch": 53558,
        "meta_bstar": 0.0015786255,
        "meta_mean_motion_dot": 1.455e-05,
        "meta_mean_motion_ddot": 0,
        "tle_line1": "1 40236U 93036BVR 25341.74471095  .00001455  00000+0  15786-2 0  9991",
        "tle_line2": "2 40236  73.5349 151.6266 0536612  32.3576 330.9258 13.24639967535580"
      },
      "geometry": {
        "type": "Point",
        "coordinates": [
          133.5273746121059,
          0.7641756103176519
        ]
      }
    },
    {
      "type": "Feature",
      "properties": {
        "norad_id": 40238,
        "name": "COSMOS 2251 DEB",
        "group": "cosmos-2251-debris",
        "lat": 61.20490275370401,
        "lon": -158.07923228393844,
        "alt_km": 1137.8878562565624,
        "timestamp": "2025-12-19T08:58:49.735403+00:00",
        "meta_object_name": "COSMOS 2251 DEB",
        "meta_object_id": "1993-036BVT",
        "meta_epoch": "2025-12-13T22:00:17.688960",
        "meta_mean_motion": 13.25118761,
        "meta_eccentricity": 0.05494159,
        "meta_inclination": 73.9889,
        "meta_ra_of_asc_node": 61.7905,
        "meta_arg_of_pericenter": 33.3831,
        "meta_mean_anomaly": 330.0665,
        "meta_ephemeris_type": 0,
        "meta_classification_type": "U",
        "meta_norad_cat_id": 40238,
        "meta_element_set_no": 999,
        "meta_rev_at_epoch": 54052,
        "meta_bstar": 0.0015955991,
        "meta_mean_motion_dot": 1.546e-05,
        "meta_mean_motion_ddot": 0,
        "tle_line1": "1 40238U 93036BVT 25347.91687140  .00001546  00000+0  15956-2 0  9998",
        "tle_line2": "2 40238  73.9889  61.7905 0549415  33.3831 330.0665 13.25118761540524"
      },
      "geometry": {
        "type": "Point",
        "coordinates": [
          -158.07923228393844,
          61.20490275370401
        ]
      }
    },
    {
      "type": "Feature",
      "properties": {
        "norad_id": 40239,
        "name": "COSMOS 2251 DEB",
        "group": "cosmos-2251-debris",
        "lat": -54.94503090825598,
        "lon": -120.95403955627566,
        "alt_km": 673.4627276327037,
        "timestamp": "2025-12-19T08:58:49.735413+00:00",
        "meta_object_name": "COSMOS 2251 DEB",
        "meta_object_id": "1993-036BVU",
        "meta_epoch": "2025-12-18T12:43:44.063040",
        "meta_mean_motion": 14.62020118,
        "meta_eccentricity": 0.00852863,
        "meta_inclination": 74.0322,
        "meta_ra_of_asc_node": 264.7457,
        "meta_arg_of_pericenter": 14.7295,
        "meta_mean_anomaly": 168.4785,
        "meta_ephemeris_type": 0,
        "meta_classification_type": "U",
        "meta_norad_cat_id": 40239,
        "meta_element_set_no": 999,
        "meta_rev_at_epoch": 59695,
        "meta_bstar": 0.00032567275,
        "meta_mean_motion_dot": 1.688e-05,
        "meta_mean_motion_ddot": 0,
        "tle_line1": "1 40239U 93036BVU 25352.53037110  .00001688  00000+0  32567-3 0  9994",
        "tle_line2": "2 40239  74.0322 264.7457 0085286  14.7295 168.4785 14.62020118596958"
      },
      "geometry": {
        "type": "Point",
        "coordinates": [
          -120.95403955627566,
          -54.94503090825598
        ]
      }
    },
    {
      "type": "Feature",
      "properties": {
        "norad_id": 40792,
        "name": "COSMOS 2251 DEB",
        "group": "cosmos-2251-debris",
        "lat": -56.792800303703686,
        "lon": -119.4290849478315,
        "alt_km": 677.5938394050181,
        "timestamp": "2025-12-19T08:58:49.735423+00:00",
        "meta_object_name": "COSMOS 2251 DEB",
        "meta_object_id": "1993-036BVV",
        "meta_epoch": "2025-12-13T21:48:53.616096",
        "meta_mean_motion": 14.67590278,
        "meta_eccentricity": 0.00153774,
        "meta_inclination": 74.0462,
        "meta_ra_of_asc_node": 45.2013,
        "meta_arg_of_pericenter": 149.8992,
        "meta_mean_anomaly": 27.0176,
        "meta_ephemeris_type": 0,
        "meta_classification_type": "U",
        "meta_norad_cat_id": 40792,
        "meta_element_set_no": 999,
        "meta_rev_at_epoch": 63201,
        "meta_bstar": 0.0011407186,
        "meta_mean_motion_dot": 6.465e-05,
        "meta_mean_motion_ddot": 0,
        "tle_line1": "1 40792U 93036BVV 25347.90895389  .00006465  00000+0  11407-2 0  9990",
        "tle_line2": "2 40792  74.0462  45.2013 0015377 149.8992  27.0176 14.67590278632011"
      },
      "geometry": {
        "type": "Point",
        "coordinates": [
          -119.4290849478315,
          -56.792800303703686
        ]
      }
    }
  ]
}